{"type": "FeatureCollection", "features": [ {"type": "Feature", "properties": {"norad_id": 45344, "name": "BEIDOU-3 G2 (C60)", "group": "gnss", "lat": -0.8794694105194738, "lon": -115.98192517659166, "alt_km": 35778.08305116587, "timestamp": "2025-12-09T05:43:20.968458+00:00", "meta": {"OBJECT_NAME": "BEIDOU-3 G2 (C60)", "OBJECT_ID": "2020-017A", "EPOCH": "2025-12-08T17:24:33.366816", "MEAN_MOTION": 1.00273181, "ECCENTRICITY": 0.0004359, "INCLINATION": 2.49, "RA_OF_ASC_NODE": 43.8378, "ARG_OF_PERICENTER": 265.5358, "MEAN_ANOMALY": 109.5017, "EPHEMERIS_TYPE": 0, "CLASSIFICATION_TYPE": "U", "NORAD_CAT_ID": 45344, "ELEMENT_SET_NO": 999, "REV_AT_EPOCH": 2135, "BSTAR": 0, "MEAN_MOTION_DOT": -1.39e-06, "MEAN_MOTION_DDOT": 0}, "tle": {"line1": "1 45344U 20017A   25342.72538619 -.00000139  00000+0  00000+0 0  9999", "line2": "2 45344   2.4900  43.8378 0004359 265.5358 109.5017  1.00273181 21352"}}, "geometry": {"type": "Point", "coordinates": [-115.98192517659166, -0.8794694105194738]}}, {"type": "Feature", "properties": {"norad_id": 45358, "name": "COSMOS 2545 (760)", "group": "gnss", "lat": 43.082196267004974, "lon": -14.381704328506478, "alt_km": 19152.973016355892, "timestamp": "2025-12-09T05:43:20.968475+00:00", "meta": {"OBJECT_NAME": "COSMOS 2545 (760)", "OBJECT_ID": "2020-018A", "EPOCH": "2025-12-08T16:55:08.063616", "MEAN_MOTION": 2.13102412, "ECCENTRICITY": 0.0011713, "INCLINATION": 64.4718, "RA_OF_ASC_NODE": 319.1113, "ARG_OF_PERICENTER": 249.1124, "MEAN_ANOMALY": 110.7574, "EPHEMERIS_TYPE": 0, "CLASSIFICATION_TYPE": "U", "NORAD_CAT_ID": 45358, "ELEMENT_SET_NO": 999, "REV_AT_EPOCH": 4460, "BSTAR": 0, "MEAN_MOTION_DOT": -5e-07, "MEAN_MOTION_DDOT": 0}, "tle": {"line1": "1 45358U 20018A   25342.70495444 -.00000050  00000+0  00000+0 0  9993", "line2": "2 45358  64.4718 319.1113 0011713 249.1124 110.7574  2.13102412 44607"}}, "geometry": {"type": "Point", "coordinates": [-14.381704328506478, 43.082196267004974]}}, {"type": "Feature", "properties": {"norad_id": 45807, "name": "BEIDOU-3 G3 (C61)", "group": "gnss", "lat": -0.9487234944931475, "lon": -85.4956862051388, "alt_km": 35788.899552649615, "timestamp": "2025-12-09T05:43:20.968499+00:00", "meta": {"OBJECT_NAME": "BEIDOU-3 G3 (C61)", "OBJECT_ID": "2020-040A", "EPOCH": "2025-12-08T14:07:49.219968", "MEAN_MOTION": 1.00275865, "ECCENTRICITY": 0.00060191, "INCLINATION": 1.9812, "RA_OF_ASC_NODE": 66.5832, "ARG_OF_PERICENTER": 306.2676, "MEAN_ANOMALY": 27.2048, "EPHEMERIS_TYPE": 0, "CLASSIFICATION_TYPE": "U", "NORAD_CAT_ID": 45807, "ELEMENT_SET_NO": 999, "REV_AT_EPOCH": 2015, "BSTAR": 0, "MEAN_MOTION_DOT": -3.52e-06, "MEAN_MOTION_DDOT": 0}, "tle": {"line1": "1 45807U 20040A   25342.58876412 -.00000352  00000+0  00000+0 0  9996", "line2": "2 45807   1.9812  66.5832 0006019 306.2676  27.2048  1.00275865 20158"}}, "geometry": {"type": "Point", "coordinates": [-85.4956862051388, -0.9487234944931475]}}, {"type": "Feature", "properties": {"norad_id": 45854, "name": "GPS BIII-3  (PRN 23)", "group": "gnss", "lat": -19.162798387494558, "lon": 23.065798147613467, "alt_km": 20295.036481446437, "timestamp": "2025-12-09T05:43:20.968519+00:00", "meta": {"OBJECT_NAME": "GPS BIII-3  (PRN 23)", "OBJECT_ID": "2020-041A", "EPOCH": "2025-12-08T06:52:29.701632", "MEAN_MOTION": 2.00561767, "ECCENTRICITY": 0.0060382, "INCLINATION": 56.544, "RA_OF_ASC_NODE": 36.3588, "ARG_OF_PERICENTER": 203.2609, "MEAN_ANOMALY": 165.7518, "EPHEMERIS_TYPE": 0, "CLASSIFICATION_TYPE": "U", "NORAD_CAT_ID": 45854, "ELEMENT_SET_NO": 999, "REV_AT_EPOCH": 4021, "BSTAR": 0, "MEAN_MOTION_DOT": -7.9e-07, "MEAN_MOTION_DDOT": 0}, "tle": {"line1": "1 45854U 20041A   25342.28645488 -.00000079  00000+0  00000+0 0  9999", "line2": "2 45854  56.5440  36.3588 0060382 203.2609 165.7518  2.00561767 40210"}}, "geometry": {"type": "Point", "coordinates": [23.065798147613467, -19.162798387494558]}}, {"type": "Feature", "properties": {"norad_id": 46114, "name": "GALAXY 30 (WAAS/PRN 135)", "group": "gnss", "lat": 0.030068927104696157, "lon": 39.078524139369115, "alt_km": 35794.36391500043, "timestamp": "2025-12-09T05:43:20.968537+00:00", "meta": {"OBJECT_NAME": "GALAXY 30 (WAAS/PRN 135)", "OBJECT_ID": "2020-056C", "EPOCH": "2025-12-08T16:25:58.490400", "MEAN_MOTION": 1.00271162, "ECCENTRICITY": 0.0002417, "INCLINATION": 0.018, "RA_OF_ASC_NODE": 351.851, "ARG_OF_PERICENTER": 264.4369, "MEAN_ANOMALY": 302.8891, "EPHEMERIS_TYPE": 0, "CLASSIFICATION_TYPE": "U", "NORAD_CAT_ID": 46114, "ELEMENT_SET_NO": 999, "REV_AT_EPOCH": 1938, "BSTAR": 0, "MEAN_MOTION_DOT": 3.9e-07, "MEAN_MOTION_DDOT": 0}, "tle": {"line1": "1 46114U 20056C   25342.68470475  .00000039  00000+0  00000+0 0  9996", "line2": "2 46114   0.0180 351.8510 0002417 264.4369 302.8891  1.00271162 19380"}}, "geometry": {"type": "Point", "coordinates": [39.078524139369115, 0.030068927104696157]}}, {"type": "Feature", "properties": {"norad_id": 46805, "name": "COSMOS 2547 (705K)", "group": "gnss", "lat": -64.12857764125181, "lon": 97.338166759698, "alt_km": 19123.81682934133, "timestamp": "2025-12-09T05:43:20.968555+00:00", "meta": {"OBJECT_NAME": "COSMOS 2547 (705K)", "OBJECT_ID": "2020-075A", "EPOCH": "2025-12-07T22:54:27.999936", "MEAN_MOTION": 2.13099949, "ECCENTRICITY": 0.00062185, "INCLINATION": 64.596, "RA_OF_ASC_NODE": 198.8564, "ARG_OF_PERICENTER": 228.8188, "MEAN_ANOMALY": 131.2072, "EPHEMERIS_TYPE": 0, "CLASSIFICATION_TYPE": "U", "NORAD_CAT_ID": 46805, "ELEMENT_SET_NO": 999, "REV_AT_EPOCH": 3983, "BSTAR": 0, "MEAN_MOTION_DOT": 5.3e-07, "MEAN_MOTION_DDOT": 0}, "tle": {"line1": "1 46805U 20075A   25341.95449074  .00000053  00000+0  00000+0 0  9990", "line2": "2 46805  64.5960 198.8564 0006218 228.8188 131.2072  2.13099949 39835"}}, "geometry": {"type": "Point", "coordinates": [97.338166759698, -64.12857764125181]}}, {"type": "Feature", "properties": {"norad_id": 46826, "name": "GPS BIII-4  (PRN 14)", "group": "gnss", "lat": -39.67391079042423, "lon": -178.5425241261953, "alt_km": 20228.599545596604, "timestamp": "2025-12-09T05:43:20.968572+00:00", "meta": {"OBJECT_NAME": "GPS BIII-4  (PRN 14)", "OBJECT_ID": "2020-078A", "EPOCH": "2025-12-08T07:24:38.694816", "MEAN_MOTION": 2.00566757, "ECCENTRICITY": 0.0064564, "INCLINATION": 54.0162, "RA_OF_ASC_NODE": 218.5209, "ARG_OF_PERICENTER": 203.3462, "MEAN_ANOMALY": 152.6425, "EPHEMERIS_TYPE": 0, "CLASSIFICATION_TYPE": "U", "NORAD_CAT_ID": 46826, "ELEMENT_SET_NO": 999, "REV_AT_EPOCH": 3767, "BSTAR": 0, "MEAN_MOTION_DOT": 2e-07, "MEAN_MOTION_DDOT": 0}, "tle": {"line1": "1 46826U 20078A   25342.30878119  .00000020  00000+0  00000+0 0  9996", "line2": "2 46826  54.0162 218.5209 0064564 203.3462 152.6425  2.00566757 37674"}}, "geometry": {"type": "Point", "coordinates": [-178.5425241261953, -39.67391079042423]}}, {"type": "Feature", "properties": {"norad_id": 48859, "name": "GPS BIII-5  (PRN 11)", "group": "gnss", "lat": 37.24371326189537, "lon": 128.24873853889167, "alt_km": 20190.906505158684, "timestamp": "2025-12-09T05:43:20.968590+00:00", "meta": {"OBJECT_NAME": "GPS BIII-5  (PRN 11)", "OBJECT_ID": "2021-054A", "EPOCH": "2025-12-08T04:14:32.423424", "MEAN_MOTION": 2.00553628, "ECCENTRICITY": 0.0024681, "INCLINATION": 55.2581, "RA_OF_ASC_NODE": 340.1367, "ARG_OF_PERICENTER": 233.3965, "MEAN_ANOMALY": 212.8622, "EPHEMERIS_TYPE": 0, "CLASSIFICATION_TYPE": "U", "NORAD_CAT_ID": 48859, "ELEMENT_SET_NO": 999, "REV_AT_EPOCH": 3292, "BSTAR": 0, "MEAN_MOTION_DOT": -8.6e-07, "MEAN_MOTION_DDOT": 0}, "tle": {"line1": "1 48859U 21054A   25342.17676416 -.00000086  00000+0  00000+0 0  9993", "line2": "2 48859  55.2581 340.1367 0024681 233.3965 212.8622  2.00553628 32928"}}, "geometry": {"type": "Point", "coordinates": [128.24873853889167, 37.24371326189537]}}, {"type": "Feature", "properties": {"norad_id": 49336, "name": "QZS-1R (QZSS/PRN 196)", "group": "gnss", "lat": -17.170987208268258, "lon": -73.48866216101855, "alt_km": 34121.828258699665, "timestamp": "2025-12-09T05:43:20.968608+00:00", "meta": {"OBJECT_NAME": "QZS-1R (QZSS/PRN 196)", "OBJECT_ID": "2021-096A", "EPOCH": "2025-12-08T14:42:38.556000", "MEAN_MOTION": 1.00258569, "ECCENTRICITY": 0.0754363, "INCLINATION": 37.0693, "RA_OF_ASC_NODE": 82.4203, "ARG_OF_PERICENTER": 271.2519, "MEAN_ANOMALY": 79.6136, "EPHEMERIS_TYPE": 0, "CLASSIFICATION_TYPE": "U", "NORAD_CAT_ID": 49336, "ELEMENT_SET_NO": 999, "REV_AT_EPOCH": 1509, "BSTAR": 0, "MEAN_MOTION_DOT": -2.65e-06, "MEAN_MOTION_DDOT": 0}, "tle": {"line1": "1 49336U 21096A   25342.61294625 -.00000265  00000+0  00000+0 0  9996", "line2": "2 49336  37.0693  82.4203 0754363 271.2519  79.6136  1.00258569 15092"}}, "geometry": {"type": "Point", "coordinates": [-73.48866216101855, -17.170987208268258]}}, {"type": "Feature", "properties": {"norad_id": 49809, "name": "GSAT0223 (GALILEO 27)", "group": "gnss", "lat": -3.517555456835148, "lon": 169.07514805345448, "alt_km": 23217.328574313276, "timestamp": "2025-12-09T05:43:20.968626+00:00", "meta": {"OBJECT_NAME": "GSAT0223 (GALILEO 27)", "OBJECT_ID": "2021-116A", "EPOCH": "2025-12-08T12:32:15.823104", "MEAN_MOTION": 1.70475635, "ECCENTRICITY": 0.00046796, "INCLINATION": 57.2201, "RA_OF_ASC_NODE": 346.8263, "ARG_OF_PERICENTER": 251.0345, "MEAN_ANOMALY": 213.7248, "EPHEMERIS_TYPE": 0, "CLASSIFICATION_TYPE": "U", "NORAD_CAT_ID": 49809, "ELEMENT_SET_NO": 999, "REV_AT_EPOCH": 2493, "BSTAR": 0, "MEAN_MOTION_DOT": -8.6e-07, "MEAN_MOTION_DDOT": 0}, "tle": {"line1": "1 49809U 21116A   25342.52240536 -.00000086  00000+0  00000+0 0  9997", "line2": "2 49809  57.2201 346.8263 0004679 251.0345 213.7248  1.70475635 24930"}}, "geometry": {"type": "Point", "coordinates": [169.07514805345448, -3.517555456835148]}}]}